ONEWEB-0512             
1 54130U 22138T   24296.86809884  .00000090  00000+0  19267-3 0  9999
2 54130  87.9163  64.7616 0002077 103.2973 256.8391 13.19724004 97360
ONEWEB-0513             
1 54131U 22138U   24296.91469030  .00000062  00000+0  12140-3 0  9993
2 54131  87.9161  64.7437 0002177 106.7737 253.3634 13.19726109 97255
ONEWEB-0514             
1 54132U 22138V   24296.88387688 -.00000285  00000+0 -74371-3 0  9991
2 54132  87.9155  64.7404 0001587 100.2686 259.8626 13.19725630 97383
ONEWEB-0515             
1 54133U 22138W   24296.77661282  .00000085  00000+0  17718-3 0  9993
2 54133  87.9294  34.2427 0001475  65.3227 294.8060 13.20770202 99787
ONEWEB-0516             
1 54134U 22138X   24296.78280325  .00000150  00000+0  34307-3 0  9996
2 54134  87.9159  64.7807 0001723  92.5064 267.6266 13.19723537 97371
ONEWEB-0517             
1 54135U 22138Y   24296.91389245 -.00000209  00000+0 -55504-3 0  9992
2 54135  87.9157  64.7311 0001603 109.9770 250.1535 13.19724419 97392
ONEWEB-0518             
1 54136U 22138Z   24296.78120869  .00000024  00000+0  27748-4 0  9996
2 54136  87.9160  64.7783 0001678 100.6575 259.4747 13.19728291 97370
ONEWEB-0519             
1 54137U 22138AA  24296.88232378  .00000082  00000+0  17239-3 0  9994
2 54137  87.9153  64.7314 0001643 107.7103 252.4210 13.19724820 97394
